STARLINK-32273          
1 61956U 24209T   26068.52449591  .00019850  00000+0  68061-3 0  9991
2 61956  53.1605 143.0238 0001300  64.5828 295.5308 15.30196803 74871
TEVEL2-4                
1 63213U 25052D   26068.69417973  .00020990  00000+0  70363-3 0  9998
2 63213  97.4009 325.1237 0004733  95.3468 264.8313 15.30925813 54879
